SL-16 R/B               
1 22803U 93059B   26079.98164462  .00000205  00000+0  12507-3 0  9999
2 22803  70.9931 347.3157 0017878 200.1451 159.8969 14.17234272681139
ARIANE 40 R/B           
1 22830U 93061H   26079.66194367  .00000174  00000+0  79656-4 0  9998
2 22830  98.4895 148.3320 0009651 248.7509 111.2645 14.32866309695672
COSMOS 2278             
1 23087U 94023A   26079.91348285 -.00000206  00000+0 -82846-4 0  9993
2 23087  71.0538 151.6180 0008791 354.4084   5.6939 14.14378232646396
SL-16 R/B               
1 23088U 94023B   26079.95492692  .00000084  00000+0  67955-4 0  9996
2 23088  70.9996  47.2268 0005490 274.6545  85.3950 14.15010446647680
SL-16 R/B               
1 23343U 94074B   26079.95394213  .00000386  00000+0  58273-4 0  9994
2 23343  97.7094 110.3149 0006680 172.0024 252.5735 14.79420003688919
SL-16 R/B               
1 23405U 94077B   26079.93215566  .00000274  00000+0  16422-3 0  9992
2 23405  70.9848 328.8389 0002433 200.0078 160.0950 14.15566609617820
ARIANE 40+ R/B          
1 23561U 95021B   26079.43984918  .00000229  00000+0  86752-4 0  9998
2 23561  98.4477 150.7758 0007937 108.5442 262.0067 14.39779567620796
SL-16 R/B               
1 23705U 95058B   26079.93967886 -.00000010  00000+0  19016-4 0  9996
2 23705  71.0221 156.6378 0010249 105.0048 255.2210 14.15500850569446
SL-16 R/B               
1 24298U 96051B   26079.50589006  .00000100  00000+0  80578-4 0  9995
2 24298  70.7598 152.3468 0014163 131.0407 229.1940 14.12418531523178
ORBVIEW 2 (SEASTAR)     
1 24883U 97037A   26079.91869651  .00000219  00000+0  92284-4 0  9990
2 24883  98.8585 244.5290 0002747  48.1543 311.9876 14.35502369510088
SL-16 R/B               
1 25400U 98043G   26079.88755704  .00000045  00000+0  37825-4 0  9990
2 25400  98.8274  33.3315 0009627 348.4017  11.6939 14.26052163440580
SL-16 R/B               
1 25407U 98045B   26079.94508290  .00000017  00000+0  32450-4 0  9990
2 25407  71.0119 157.9061 0007525 350.1616   9.9359 14.16195411428696
ISS (ZARYA)             
1 25544U 98067A   26079.87218435  .00009590  00000+0  18573-3 0  9991
2 25544  51.6346  17.0785 0006366 213.2716 146.7873 15.48402839558062
CZ-4B R/B               
1 25732U 99025C   26079.90457041  .00000038  00000+0  39109-4 0  9994
2 25732  98.6603 123.9193 0036226 313.8351 219.2371 14.18267383389754
OKEAN-O                 
1 25860U 99039A   26079.87240530  .00000550  00000+0  78923-4 0  9996
2 25860  97.9418 139.6490 0000954  77.7889 282.3429 14.80352159436042
SL-16 R/B               
1 25861U 99039B   26079.90928117  .00000448  00000+0  63637-4 0  9997
2 25861  97.9942 138.9880 0013970 216.7284 143.2972 14.81745756438529
DELTA 2 R/B             
1 25876U 99041E   26079.91002484  .00000303  00000+0  88582-4 0  9993
2 25876  51.7605 256.4597 0502610  21.5275 340.6000 14.11864775364615
